[{"OBJECT_NAME":"LYNK TOWER 5","OBJECT_ID":"2024-043Z","EPOCH":"2026-03-09T22:11:51.175104","MEAN_MOTION":15.29454506,"ECCENTRICITY":0.00104056,"INCLINATION":97.5458,"RA_OF_ASC_NODE":204.7305,"ARG_OF_PERICENTER":234.6422,"MEAN_ANOMALY":125.3846,"EPHEMERIS_TYPE":0,"CLASSIFICATION_TYPE":"U","NORAD_CAT_ID":59121,"ELEMENT_SET_NO":999,"REV_AT_EPOCH":11186,"BSTAR":0.00031901545,"MEAN_MOTION_DOT":9.048e-5,"MEAN_MOTION_DDOT":0},{"OBJECT_NAME":"STARLINK-32169","OBJECT_ID":"2024-150G","EPOCH":"2026-03-09T20:50:32.591328","MEAN_MOTION":15.30178264,"ECCENTRICITY":0.00010645,"INCLINATION":53.1609,"RA_OF_ASC_NODE":306.5604,"ARG_OF_PERICENTER":74.7722,"MEAN_ANOMALY":285.3397,"EPHEMERIS_TYPE":0,"CLASSIFICATION_TYPE":"U","NORAD_CAT_ID":60589,"ELEMENT_SET_NO":999,"REV_AT_EPOCH":8806,"BSTAR":2.6104596e-5,"MEAN_MOTION_DOT":4.14e-6,"MEAN_MOTION_DDOT":0}]
